IRIDIUM 126             
1 42809U 17039G   25303.88929180  .00000461  00000+0  15757-3 0  9999
2 42809  86.3932  89.5016 0002174  87.3034 272.8411 14.34219884437085
IRIDIUM 124             
1 42810U 17039H   25304.26062279  .00000616  00000+0  17709-3 0  9992
2 42810  86.4531  26.0582 0002032  88.2027 271.9407 14.43280452442093
IRIDIUM 128             
1 42811U 17039J   25304.22888914  .00000164  00000+0  51399-4 0  9993
2 42811  86.3933 120.8937 0001631  88.6581 271.4802 14.34218993437166
IRIDIUM 121             
1 42812U 17039K   25303.90831994  .00000418  00000+0  14207-3 0  9992
2 42812  86.3933  89.5199 0001957  93.8055 266.3364 14.34218393436960
IRIDIUM 133             
1 42955U 17061A   25304.05128287  .00000171  00000+0  54090-4 0  9997
2 42955  86.3935 121.0800 0002018  88.5580 271.5847 14.34217917421930
IRIDIUM 100             
1 42956U 17061B   25303.97516811  .00000043  00000+0  84404-5 0  9993
2 42956  86.3937 121.0358 0001921  84.6966 275.4449 14.34217772421927
IRIDIUM 122             
1 42957U 17061C   25304.22253075  .00000045  00000+0  90120-5 0  9997
2 42957  86.3933 120.9319 0002046  85.9070 274.2360 14.34217765421963
IRIDIUM 129             
1 42958U 17061D   25304.03859570 -.00000013  00000+0 -11647-4 0  9992
2 42958  86.3938 121.0735 0002353  92.0340 268.1125 14.34217169421951
